{
  "type": "FeatureCollection",
  "features": [
    {
      "type": "Feature",
      "properties": {
        "norad_id": 29760,
        "name": "FENGYUN 1C DEB",
        "group": "fengyun-1c-debris",
        "lat": -60.04149078998521,
        "lon": -3.9084615119408683,
        "alt_km": 889.2377394270243,
        "timestamp": "2025-12-04T03:47:54.814364+00:00",
        "meta_object_name": "FENGYUN 1C DEB",
        "meta_object_id": "1999-025BA",
        "meta_epoch": "2025-12-03T11:02:30.734016",
        "meta_mean_motion": 14.08278893,
        "meta_eccentricity": 0.0130381,
        "meta_inclination": 98.7623,
        "meta_ra_of_asc_node": 339.8928,
        "meta_arg_of_pericenter": 199.7696,
        "meta_mean_anomaly": 159.8394,
        "meta_ephemeris_type": 0,
        "meta_classification_type": "U",
        "meta_norad_cat_id": 29760,
        "meta_element_set_no": 999,
        "meta_rev_at_epoch": 96962,
        "meta_bstar": 0.00024046,
        "meta_mean_motion_dot": 4.01e-06,
        "meta_mean_motion_ddot": 0,
        "tle_line1": "1 29760U 99025BA  25337.46007794  .00000401  00000+0  24046-3 0  9999",
        "tle_line2": "2 29760  98.7623 339.8928 0130381 199.7696 159.8394 14.08278893969627"
      },
      "geometry": {
        "type": "Point",
        "coordinates": [
          -3.9084615119408683,
          -60.04149078998521
        ]
      }
    },
    {
      "type": "Feature",
      "properties": {
        "norad_id": 29762,
        "name": "FENGYUN 1C DEB",
        "group": "fengyun-1c-debris",
        "lat": -2.8611604941162696,
        "lon": 140.73751207733707,
        "alt_km": 967.1583438226198,
        "timestamp": "2025-12-04T03:47:54.814374+00:00",
        "meta_object_name": "FENGYUN 1C DEB",
        "meta_object_id": "1999-025BC",
        "meta_epoch": "2025-12-03T10:45:58.031712",
        "meta_mean_motion": 14.22546264,
        "meta_eccentricity": 0.0204599,
        "meta_inclination": 98.5783,
        "meta_ra_of_asc_node": 320.4784,
        "meta_arg_of_pericenter": 2.66,
        "meta_mean_anomaly": 147.8515,
        "meta_ephemeris_type": 0,
        "meta_classification_type": "U",
        "meta_norad_cat_id": 29762,
        "meta_element_set_no": 999,
        "meta_rev_at_epoch": 97816,
        "meta_bstar": 0.00060342,
        "meta_mean_motion_dot": 1.623e-05,
        "meta_mean_motion_ddot": 0,
        "tle_line1": "1 29762U 99025BC  25337.44858833  .00001623  00000+0  60342-3 0  9993",
        "tle_line2": "2 29762  98.5783 320.4784 0204599   2.6600 147.8515 14.22546264978167"
      },
      "geometry": {
        "type": "Point",
        "coordinates": [
          140.73751207733707,
          -2.8611604941162696
        ]
      }
    },
    {
      "type": "Feature",
      "properties": {
        "norad_id": 29763,
        "name": "FENGYUN 1C DEB",
        "group": "fengyun-1c-debris",
        "lat": 39.5011799436717,
        "lon": 145.12079501500384,
        "alt_km": 823.6645286847306,
        "timestamp": "2025-12-04T03:47:54.814385+00:00",
        "meta_object_name": "FENGYUN 1C DEB",
        "meta_object_id": "1999-025BD",
        "meta_epoch": "2025-12-02T22:23:50.635680",
        "meta_mean_motion": 14.07866886,
        "meta_eccentricity": 0.01269688,
        "meta_inclination": 98.7601,
        "meta_ra_of_asc_node": 316.6293,
        "meta_arg_of_pericenter": 208.2466,
        "meta_mean_anomaly": 207.4354,
        "meta_ephemeris_type": 0,
        "meta_classification_type": "U",
        "meta_norad_cat_id": 29763,
        "meta_element_set_no": 999,
        "meta_rev_at_epoch": 96912,
        "meta_bstar": 0.00015763978,
        "meta_mean_motion_dot": 2.45e-06,
        "meta_mean_motion_ddot": 0,
        "tle_line1": "1 29763U 99025BD  25336.93322495  .00000245  00000+0  15764-3 0  9994",
        "tle_line2": "2 29763  98.7601 316.6293 0126968 208.2466 207.4354 14.07866886969126"
      },
      "geometry": {
        "type": "Point",
        "coordinates": [
          145.12079501500384,
          39.5011799436717
        ]
      }
    },
    {
      "type": "Feature",
      "properties": {
        "norad_id": 29765,
        "name": "FENGYUN 1C DEB",
        "group": "fengyun-1c-debris",
        "lat": -21.073926364352335,
        "lon": 173.17813255168224,
        "alt_km": 887.4113517609912,
        "timestamp": "2025-12-04T03:47:54.814395+00:00",
        "meta_object_name": "FENGYUN 1C DEB",
        "meta_object_id": "1999-025BF",
        "meta_epoch": "2025-12-03T08:05:03.172128",
        "meta_mean_motion": 14.02148175,
        "meta_eccentricity": 0.0059547,
        "meta_inclination": 98.831,
        "meta_ra_of_asc_node": 355.8168,
        "meta_arg_of_pericenter": 118.6627,
        "meta_mean_anomaly": 257.8079,
        "meta_ephemeris_type": 0,
        "meta_classification_type": "U",
        "meta_norad_cat_id": 29765,
        "meta_element_set_no": 999,
        "meta_rev_at_epoch": 96619,
        "meta_bstar": 0.00026417,
        "meta_mean_motion_dot": 3.68e-06,
        "meta_mean_motion_ddot": 0,
        "tle_line1": "1 29765U 99025BF  25337.33684227  .00000368  00000+0  26417-3 0  9998",
        "tle_line2": "2 29765  98.8310 355.8168 0059547 118.6627 257.8079 14.02148175966199"
      },
      "geometry": {
        "type": "Point",
        "coordinates": [
          173.17813255168224,
          -21.073926364352335
        ]
      }
    },
    {
      "type": "Feature",
      "properties": {
        "norad_id": 29766,
        "name": "FENGYUN 1C DEB",
        "group": "fengyun-1c-debris",
        "lat": 31.588166883337944,
        "lon": 113.6503696041991,
        "alt_km": 1005.1906943579488,
        "timestamp": "2025-12-04T03:47:54.814405+00:00",
        "meta_object_name": "FENGYUN 1C DEB",
        "meta_object_id": "1999-025BG",
        "meta_epoch": "2025-12-03T20:27:44.487072",
        "meta_mean_motion": 13.96984347,
        "meta_eccentricity": 0.0146905,
        "meta_inclination": 98.6837,
        "meta_ra_of_asc_node": 287.9692,
        "meta_arg_of_pericenter": 312.8909,
        "meta_mean_anomaly": 99.0469,
        "meta_ephemeris_type": 0,
        "meta_classification_type": "U",
        "meta_norad_cat_id": 29766,
        "meta_element_set_no": 999,
        "meta_rev_at_epoch": 95680,
        "meta_bstar": 0.0023493,
        "meta_mean_motion_dot": 3.547e-05,
        "meta_mean_motion_ddot": 0,
        "tle_line1": "1 29766U 99025BG  25337.85259823  .00003547  00000+0  23493-2 0  9998",
        "tle_line2": "2 29766  98.6837 287.9692 0146905 312.8909  99.0469 13.96984347956802"
      },
      "geometry": {
        "type": "Point",
        "coordinates": [
          113.6503696041991,
          31.588166883337944
        ]
      }
    },
    {
      "type": "Feature",
      "properties": {
        "norad_id": 29767,
        "name": "FENGYUN 1C DEB",
        "group": "fengyun-1c-debris",
        "lat": -29.38335841637672,
        "lon": 123.02709029588898,
        "alt_km": 1018.127972723476,
        "timestamp": "2025-12-04T03:47:54.814415+00:00",
        "meta_object_name": "FENGYUN 1C DEB",
        "meta_object_id": "1999-025BH",
        "meta_epoch": "2025-12-03T15:06:21.824928",
        "meta_mean_motion": 14.0320423,
        "meta_eccentricity": 0.0333084,
        "meta_inclination": 98.1982,
        "meta_ra_of_asc_node": 307.2055,
        "meta_arg_of_pericenter": 87.1296,
        "meta_mean_anomaly": 329.2485,
        "meta_ephemeris_type": 0,
        "meta_classification_type": "U",
        "meta_norad_cat_id": 29767,
        "meta_element_set_no": 999,
        "meta_rev_at_epoch": 95472,
        "meta_bstar": 0.0024628,
        "meta_mean_motion_dot": 6.245e-05,
        "meta_mean_motion_ddot": 0,
        "tle_line1": "1 29767U 99025BH  25337.62941927  .00006245  00000+0  24628-2 0  9996",
        "tle_line2": "2 29767  98.1982 307.2055 0333084  87.1296 329.2485 14.03204230954725"
      },
      "geometry": {
        "type": "Point",
        "coordinates": [
          123.02709029588898,
          -29.38335841637672
        ]
      }
    },
    {
      "type": "Feature",
      "properties": {
        "norad_id": 29769,
        "name": "FENGYUN 1C DEB",
        "group": "fengyun-1c-debris",
        "lat": -55.60891653358131,
        "lon": 48.83940062981909,
        "alt_km": 912.8114358523198,
        "timestamp": "2025-12-04T03:47:54.814425+00:00",
        "meta_object_name": "FENGYUN 1C DEB",
        "meta_object_id": "1999-025BK",
        "meta_epoch": "2025-12-02T16:23:36.839328",
        "meta_mean_motion": 14.1344001,
        "meta_eccentricity": 0.00941574,
        "meta_inclination": 99.1074,
        "meta_ra_of_asc_node": 33.7848,
        "meta_arg_of_pericenter": 158.4055,
        "meta_mean_anomaly": 202.1129,
        "meta_ephemeris_type": 0,
        "meta_classification_type": "U",
        "meta_norad_cat_id": 29769,
        "meta_element_set_no": 999,
        "meta_rev_at_epoch": 96539,
        "meta_bstar": 0.0018821587,
        "meta_mean_motion_dot": 3.647e-05,
        "meta_mean_motion_ddot": 0,
        "tle_line1": "1 29769U 99025BK  25336.68306527  .00003647  00000+0  18822-2 0  9996",
        "tle_line2": "2 29769  99.1074  33.7848 0094157 158.4055 202.1129 14.13440010965399"
      },
      "geometry": {
        "type": "Point",
        "coordinates": [
          48.83940062981909,
          -55.60891653358131
        ]
      }
    }
  ]
}